[{"OBJECT_NAME":"STARLINK-5787","OBJECT_ID":"2023-042U","EPOCH":"2026-03-09T00:30:06.566112","MEAN_MOTION":15.02528532,"ECCENTRICITY":0.00014679,"INCLINATION":43.0055,"RA_OF_ASC_NODE":59.4097,"ARG_OF_PERICENTER":270.8583,"MEAN_ANOMALY":89.2091,"EPHEMERIS_TYPE":0,"CLASSIFICATION_TYPE":"U","NORAD_CAT_ID":56004,"ELEMENT_SET_NO":999,"REV_AT_EPOCH":16281,"BSTAR":-4.8640846e-5,"MEAN_MOTION_DOT":-8.61e-6,"MEAN_MOTION_DDOT":0},{"OBJECT_NAME":"THE ARAB SATELLITE 813","OBJECT_ID":"2025-292B","EPOCH":"2026-03-09T21:37:26.354208","MEAN_MOTION":15.05594469,"ECCENTRICITY":0.00142186,"INCLINATION":97.6379,"RA_OF_ASC_NODE":145.6178,"ARG_OF_PERICENTER":341.4344,"MEAN_ANOMALY":18.6363,"EPHEMERIS_TYPE":0,"CLASSIFICATION_TYPE":"U","NORAD_CAT_ID":66994,"ELEMENT_SET_NO":999,"REV_AT_EPOCH":1350,"BSTAR":0.00043840303,"MEAN_MOTION_DOT":6.274e-5,"MEAN_MOTION_DDOT":0}]
